[{"OBJECT_NAME":"FLOCK 4Q-11","OBJECT_ID":"2023-174T","EPOCH":"2026-03-06T11:02:10.374720","MEAN_MOTION":15.44942652,"ECCENTRICITY":0.00076483,"INCLINATION":97.3907,"RA_OF_ASC_NODE":152.0122,"ARG_OF_PERICENTER":166.5576,"MEAN_ANOMALY":193.5878,"EPHEMERIS_TYPE":0,"CLASSIFICATION_TYPE":"U","NORAD_CAT_ID":58273,"ELEMENT_SET_NO":999,"REV_AT_EPOCH":12970,"BSTAR":0.00059560066,"MEAN_MOTION_DOT":0.00028027,"MEAN_MOTION_DDOT":0},{"OBJECT_NAME":"FLOCK 4Q-36","OBJECT_ID":"2023-174U","EPOCH":"2026-03-06T12:18:44.022528","MEAN_MOTION":15.50950476,"ECCENTRICITY":0.00077255,"INCLINATION":97.3893,"RA_OF_ASC_NODE":154.698,"ARG_OF_PERICENTER":156.4132,"MEAN_ANOMALY":203.7475,"EPHEMERIS_TYPE":0,"CLASSIFICATION_TYPE":"U","NORAD_CAT_ID":58274,"ELEMENT_SET_NO":999,"REV_AT_EPOCH":12988,"BSTAR":0.00051924777,"MEAN_MOTION_DOT":0.00030101,"MEAN_MOTION_DDOT":0},{"OBJECT_NAME":"FLOCK 4Q-12","OBJECT_ID":"2023-174V","EPOCH":"2026-03-06T04:48:17.666208","MEAN_MOTION":15.51363462,"ECCENTRICITY":0.0005898,"INCLINATION":97.3886,"RA_OF_ASC_NODE":154.2601,"ARG_OF_PERICENTER":165.2523,"MEAN_ANOMALY":194.8902,"EPHEMERIS_TYPE":0,"CLASSIFICATION_TYPE":"U","NORAD_CAT_ID":58275,"ELEMENT_SET_NO":999,"REV_AT_EPOCH":12985,"BSTAR":0.0014029542,"MEAN_MOTION_DOT":0.00083206,"MEAN_MOTION_DDOT":0},{"OBJECT_NAME":"FLOCK 4Q-28","OBJECT_ID":"2023-174AA","EPOCH":"2026-03-06T04:58:19.232256","MEAN_MOTION":15.48780415,"ECCENTRICITY":0.00072377,"INCLINATION":97.3911,"RA_OF_ASC_NODE":153.5054,"ARG_OF_PERICENTER":163.3692,"MEAN_ANOMALY":196.7797,"EPHEMERIS_TYPE":0,"CLASSIFICATION_TYPE":"U","NORAD_CAT_ID":58280,"ELEMENT_SET_NO":999,"REV_AT_EPOCH":12977,"BSTAR":0.00064387231,"MEAN_MOTION_DOT":0.00034616,"MEAN_MOTION_DDOT":0},{"OBJECT_NAME":"FLOCK 4Q-27","OBJECT_ID":"2023-174AC","EPOCH":"2026-03-06T04:52:17.527296","MEAN_MOTION":15.48765871,"ECCENTRICITY":0.00066514,"INCLINATION":97.3858,"RA_OF_ASC_NODE":153.0434,"ARG_OF_PERICENTER":159.605,"MEAN_ANOMALY":200.5468,"EPHEMERIS_TYPE":0,"CLASSIFICATION_TYPE":"U","NORAD_CAT_ID":58282,"ELEMENT_SET_NO":999,"REV_AT_EPOCH":12978,"BSTAR":0.00067380052,"MEAN_MOTION_DOT":0.00036212,"MEAN_MOTION_DDOT":0},{"OBJECT_NAME":"FLOCK 4Q-26","OBJECT_ID":"2023-174AE","EPOCH":"2026-03-06T04:21:15.793920","MEAN_MOTION":15.50575935,"ECCENTRICITY":0.0007229,"INCLINATION":97.3907,"RA_OF_ASC_NODE":154.4443,"ARG_OF_PERICENTER":161.6703,"MEAN_ANOMALY":198.4811,"EPHEMERIS_TYPE":0,"CLASSIFICATION_TYPE":"U","NORAD_CAT_ID":58284,"ELEMENT_SET_NO":999,"REV_AT_EPOCH":12983,"BSTAR":0.00063649715,"MEAN_MOTION_DOT":0.00036456,"MEAN_MOTION_DDOT":0},{"OBJECT_NAME":"FLOCK 4Q-31","OBJECT_ID":"2023-174AF","EPOCH":"2026-03-06T05:04:40.325376","MEAN_MOTION":15.50095901,"ECCENTRICITY":0.0007779,"INCLINATION":97.3951,"RA_OF_ASC_NODE":154.1175,"ARG_OF_PERICENTER":163.3849,"MEAN_ANOMALY":196.7659,"EPHEMERIS_TYPE":0,"CLASSIFICATION_TYPE":"U","NORAD_CAT_ID":58285,"ELEMENT_SET_NO":999,"REV_AT_EPOCH":12979,"BSTAR":0.00078276819,"MEAN_MOTION_DOT":0.00044152,"MEAN_MOTION_DDOT":0},{"OBJECT_NAME":"FLOCK 4Q-30","OBJECT_ID":"2023-174AG","EPOCH":"2026-03-06T04:48:03.381696","MEAN_MOTION":15.50316802,"ECCENTRICITY":0.00075279,"INCLINATION":97.3952,"RA_OF_ASC_NODE":154.2861,"ARG_OF_PERICENTER":160.3815,"MEAN_ANOMALY":199.7728,"EPHEMERIS_TYPE":0,"CLASSIFICATION_TYPE":"U","NORAD_CAT_ID":58286,"ELEMENT_SET_NO":999,"REV_AT_EPOCH":12980,"BSTAR":0.00071445562,"MEAN_MOTION_DOT":0.00040584,"MEAN_MOTION_DDOT":0},{"OBJECT_NAME":"PELICAN-1","OBJECT_ID":"2023-174AS","EPOCH":"2026-03-06T05:52:05.618208","MEAN_MOTION":15.63371431,"ECCENTRICITY":0.00098939,"INCLINATION":97.4001,"RA_OF_ASC_NODE":159.8342,"ARG_OF_PERICENTER":249.0472,"MEAN_ANOMALY":110.9728,"EPHEMERIS_TYPE":0,"CLASSIFICATION_TYPE":"U","NORAD_CAT_ID":58296,"ELEMENT_SET_NO":999,"REV_AT_EPOCH":13002,"BSTAR":0.00088135357,"MEAN_MOTION_DOT":0.00081793,"MEAN_MOTION_DDOT":0},{"OBJECT_NAME":"FLOCK 4Q-25","OBJECT_ID":"2023-174AZ","EPOCH":"2026-03-06T12:12:35.112672","MEAN_MOTION":15.56182774,"ECCENTRICITY":0.0005351,"INCLINATION":97.3867,"RA_OF_ASC_NODE":155.4626,"ARG_OF_PERICENTER":145.166,"MEAN_ANOMALY":214.9946,"EPHEMERIS_TYPE":0,"CLASSIFICATION_TYPE":"U","NORAD_CAT_ID":58303,"ELEMENT_SET_NO":999,"REV_AT_EPOCH":12997,"BSTAR":0.00073907794,"MEAN_MOTION_DOT":0.00051927,"MEAN_MOTION_DDOT":0},{"OBJECT_NAME":"FLOCK 4Q-29","OBJECT_ID":"2023-174BA","EPOCH":"2026-03-06T13:11:36.313440","MEAN_MOTION":15.49276519,"ECCENTRICITY":0.00078309,"INCLINATION":97.3939,"RA_OF_ASC_NODE":154.2438,"ARG_OF_PERICENTER":150.9519,"MEAN_ANOMALY":209.2169,"EPHEMERIS_TYPE":0,"CLASSIFICATION_TYPE":"U","NORAD_CAT_ID":58304,"ELEMENT_SET_NO":999,"REV_AT_EPOCH":12983,"BSTAR":0.00066887204,"MEAN_MOTION_DOT":0.00036609,"MEAN_MOTION_DDOT":0},{"OBJECT_NAME":"FLOCK 4Q-22","OBJECT_ID":"2023-174BC","EPOCH":"2026-03-06T04:37:48.266400","MEAN_MOTION":15.51841576,"ECCENTRICITY":0.0006617,"INCLINATION":97.3854,"RA_OF_ASC_NODE":154.0508,"ARG_OF_PERICENTER":156.0131,"MEAN_ANOMALY":204.1431,"EPHEMERIS_TYPE":0,"CLASSIFICATION_TYPE":"U","NORAD_CAT_ID":58306,"ELEMENT_SET_NO":999,"REV_AT_EPOCH":12985,"BSTAR":0.00069163989,"MEAN_MOTION_DOT":0.00041465,"MEAN_MOTION_DDOT":0},{"OBJECT_NAME":"FLOCK 4Q-23","OBJECT_ID":"2023-174BD","EPOCH":"2026-03-06T14:34:38.461440","MEAN_MOTION":15.55003408,"ECCENTRICITY":0.00068555,"INCLINATION":97.3963,"RA_OF_ASC_NODE":156.0208,"ARG_OF_PERICENTER":150.4243,"MEAN_ANOMALY":209.74,"EPHEMERIS_TYPE":0,"CLASSIFICATION_TYPE":"U","NORAD_CAT_ID":58307,"ELEMENT_SET_NO":999,"REV_AT_EPOCH":12995,"BSTAR":0.00089185163,"MEAN_MOTION_DOT":0.0006011,"MEAN_MOTION_DDOT":0},{"OBJECT_NAME":"FLOCK 4Q-33","OBJECT_ID":"2023-174BE","EPOCH":"2026-03-06T04:15:08.721792","MEAN_MOTION":15.50928963,"ECCENTRICITY":0.00074877,"INCLINATION":97.3888,"RA_OF_ASC_NODE":153.974,"ARG_OF_PERICENTER":145.6922,"MEAN_ANOMALY":214.4815,"EPHEMERIS_TYPE":0,"CLASSIFICATION_TYPE":"U","NORAD_CAT_ID":58308,"ELEMENT_SET_NO":999,"REV_AT_EPOCH":12983,"BSTAR":0.00064767011,"MEAN_MOTION_DOT":0.00037573,"MEAN_MOTION_DDOT":0},{"OBJECT_NAME":"FLOCK 4Q-35","OBJECT_ID":"2023-174BF","EPOCH":"2026-03-06T13:10:41.445984","MEAN_MOTION":15.49933452,"ECCENTRICITY":0.00082285,"INCLINATION":97.3905,"RA_OF_ASC_NODE":154.5249,"ARG_OF_PERICENTER":157.261,"MEAN_ANOMALY":202.9008,"EPHEMERIS_TYPE":0,"CLASSIFICATION_TYPE":"U","NORAD_CAT_ID":58309,"ELEMENT_SET_NO":999,"REV_AT_EPOCH":12987,"BSTAR":0.00071089778,"MEAN_MOTION_DOT":0.00039845,"MEAN_MOTION_DDOT":0},{"OBJECT_NAME":"FLOCK 4Q-34","OBJECT_ID":"2023-174BN","EPOCH":"2026-03-06T05:35:14.581824","MEAN_MOTION":15.55174817,"ECCENTRICITY":0.00066855,"INCLINATION":97.3866,"RA_OF_ASC_NODE":155.0356,"ARG_OF_PERICENTER":153.3887,"MEAN_ANOMALY":206.7712,"EPHEMERIS_TYPE":0,"CLASSIFICATION_TYPE":"U","NORAD_CAT_ID":58316,"ELEMENT_SET_NO":999,"REV_AT_EPOCH":12990,"BSTAR":0.00077532869,"MEAN_MOTION_DOT":0.0005252,"MEAN_MOTION_DDOT":0}]
